[{"OBJECT_NAME":"OBJECT B","OBJECT_ID":"2024-110B","EPOCH":"2026-03-09T22:35:04.670592","MEAN_MOTION":15.20929558,"ECCENTRICITY":0.00104067,"INCLINATION":97.5691,"RA_OF_ASC_NODE":164.2888,"ARG_OF_PERICENTER":231.2544,"MEAN_ANOMALY":128.7762,"EPHEMERIS_TYPE":0,"CLASSIFICATION_TYPE":"U","NORAD_CAT_ID":60013,"ELEMENT_SET_NO":999,"REV_AT_EPOCH":9709,"BSTAR":0.00046906092,"MEAN_MOTION_DOT":0.00010329,"MEAN_MOTION_DDOT":0},{"OBJECT_NAME":"COSMOS 2251 DEB","OBJECT_ID":"1993-036BK","EPOCH":"2026-03-09T19:57:45.204480","MEAN_MOTION":15.2250442,"ECCENTRICITY":0.00171058,"INCLINATION":74.0815,"RA_OF_ASC_NODE":344.9963,"ARG_OF_PERICENTER":285.2465,"MEAN_ANOMALY":74.6843,"EPHEMERIS_TYPE":0,"CLASSIFICATION_TYPE":"U","NORAD_CAT_ID":33818,"ELEMENT_SET_NO":999,"REV_AT_EPOCH":91183,"BSTAR":0.0028725842,"MEAN_MOTION_DOT":0.00067433,"MEAN_MOTION_DDOT":0}]
